{"type":"FeatureCollection","features":[{"type":"Feature","properties":{},"geometry":{"coordinates":[[[58.19487623545467,18.44510780187376],[52.648986846011184,15.260775917714739],[47.29695693382999,12.831470666539389],[45.52028305429542,11.619101397822448],[46.787514413990294,10.964056505488742],[49.86893582918299,11.603976456985606],[50.99488021768272,12.17018677866362],[51.54079145908628,11.67138629087745],[50.9755287489167,9.506639692673659],[50.010315054933244,6.953508013976659],[55.052181697028516,8.159811863623958],[59.48840603729133,10.533357359733728],[60.674713189855964,14.585606996142886],[61.375155613507275,20.026367580479516],[58.19487623545467,18.44510780187376]]],"type":"Polygon"},"id":0}]}
